STARLINK-36334          
1 67471U 26008AC  26041.25002315 -.02013836  00000+0 -53394-1 0  9991
2 67471  43.0002   0.8249 0001195 289.2096 237.0218 15.41137982  5381
STARLINK-36269          
1 67472U 26008AD  26041.25002315 -.02039885  00000+0 -43295-1 0  9993
2 67472  43.0000   0.8260 0001001 272.9614 252.2317 15.47656416  5400
STARLINK-36408          
1 67473U 26008AE  26040.97047914  .00113268  00000+0  19035-2 0  9996
2 67473  43.0004   2.5667 0001425 246.4768 113.5943 15.50655502  5325
ALSAT-3A                
1 67474U 26009A   26041.28942357  .00007252  00000+0  30642-3 0  9991
2 67474  97.4675 115.9408 0012590 164.6345 195.5276 15.23472993  3959
CZ-2C R/B               
1 67475U 26009B   26041.17632581  .00003183  00000+0  21510-3 0  9998
2 67475  97.1747 113.7482 0100421 133.3711 227.5937 15.03138097  3947
TIANQI-37               
1 67476U 26010A   26039.27753693  .00000165  00000+0  15719-3 0  9998
2 67476  44.9825 296.6529 0012909  70.2546 289.9683 14.13528441  3324
TIANQI-38               
1 67477U 26010B   26039.27310946  .00000208  00000+0  17865-3 0  9991
2 67477  44.9788 296.6199 0011754  75.6443 284.5700 14.13905796  3321
TIANQI-39               
1 67478U 26010C   26039.27859865  .00000167  00000+0  15988-3 0  9998
2 67478  44.9839 296.6613 0016488  82.3005 277.9705 14.13055169  3329
TIANQI-40               
1 67479U 26010D   26040.19213046  .00000156  00000+0  15351-3 0  9999
2 67479  44.9786 292.4342 0011741  80.4003 279.8161 14.13182235  3454
SZ-20 MODULE            
1 67481U 25082C   26040.96928673  .00024628  00000+0  27050-3 0  9993
2 67481  41.4800  16.3066 0006962 145.5631 214.5661 15.62594222273280
2025-313BE              
1 67482U 25313BE  26040.98738471  .00063906  00000+0  24995-2 0  9994
2 67482  97.4058 117.8480 0008754  85.7854 274.4385 15.25562216  3744
ION SCV-021             
1 67483U 25276DT  26034.18647169 -.00137880  00000+0 -12184-1 0  9992
2 67483  97.5347 109.4970 0011364 207.9438 152.1175 14.97059561  2554
